NORAD_CAT_ID,OBJECT_NAME,OBJECT_TYPE,EPOCH,MEAN_MOTION,ECCENTRICITY,INCLINATION,RA_OF_ASC_NODE,ARG_OF_PERICENTER,MEAN_ANOMALY,BSTAR,MEAN_MOTION_DOT,MEAN_MOTION_DDOT,TLE_LINE0,TLE_LINE1,TLE_LINE2,SEMIMAJOR_AXIS,PERIOD,APOGEE,PERIGEE,DECAYED
53285.0,STARLINK-4173,PAYLOAD,2023-11-14 21:44:20,15.08838958,0.0001272,53.219,20.9961,78.867,281.2465,2.5879e-05,1.24e-06,0.0,0 STARLINK-4173,1 53285U 22086AV  23318.90579542  .00000124  00000-0  25879-4 0  9991,2 53285  53.2190  20.9961 0001272  78.8670 281.2465 15.08838958 73508,6917.884,95.438,540.629,538.869,0.0
53285.0,STARLINK-4173,PAYLOAD,2023-11-15 10:27:25,15.08842379,0.0001387,53.2195,18.6172,79.8161,280.2987,-1.4791e-05,-5.23e-06,0.0,0 STARLINK-4173,1 53285U 22086AV  23319.43571486 -.00000523  00000-0 -14791-4 0  9995,2 53285  53.2195  18.6172 0001387  79.8161 280.2987 15.08842379 73582,6917.873,95.437,540.698,538.779,0.0
53285.0,STARLINK-4173,PAYLOAD,2023-11-15 21:35:07,15.08841683,0.0001474,53.2196,16.5358,77.5173,282.5984,6.0515e-05,6.75e-06,0.0,0 STARLINK-4173,1 53285U 22086AV  23319.89939275  .00000675  00000-0  60515-4 0  9990,2 53285  53.2196  16.5358 0001474  77.5173 282.5984 15.08841683 73658,6917.875,95.437,540.76,538.721,0.0
53285.0,STARLINK-4173,PAYLOAD,2023-11-16 03:56:40,15.08838572,0.0001581,53.2185,15.3472,76.0893,284.0275,6.8488e-05,8.02e-06,0.0,0 STARLINK-4173,1 53285U 22086AV  23320.16435478  .00000802  00000-0  68488-4 0  9997,2 53285  53.2185  15.3472 0001581  76.0893 284.0275 15.08838572 73532,6917.885,95.438,540.843,538.656,0.0
53285.0,STARLINK-4173,PAYLOAD,2023-11-16 08:42:49,15.08838806,0.0001538,53.2189,14.455,77.1575,282.9589,6.3744e-05,7.27e-06,0.0,0 STARLINK-4173,1 53285U 22086AV  23320.36307475  .00000727  00000-0  63744-4 0  9990,2 53285  53.2189  14.4550 0001538  77.1575 282.9589 15.08838806 73720,6917.884,95.438,540.813,538.685,0.0
53285.0,STARLINK-4173,PAYLOAD,2023-11-17 10:08:59,15.08839357,0.000146,53.2188,9.6971,81.9665,278.1493,3.5752e-05,2.81e-06,0.0,0 STARLINK-4173,1 53285U 22086AV  23321.42291555  .00000281  00000-0  35752-4 0  9992,2 53285  53.2188   9.6971 0001460  81.9665 278.1493 15.08839357 73722,6917.882,95.438,540.757,538.737,0.0
53285.0,STARLINK-4173,PAYLOAD,2023-11-17 13:19:45,15.08841039,0.0001423,53.2181,9.1006,89.7476,270.3679,5.1434e-05,5.31e-06,0.0,0 STARLINK-4173,1 53285U 22086AV  23321.55539319  .00000531  00000-0  51434-4 0  9992,2 53285  53.2181   9.1006 0001423  89.7476 270.3679 15.08841039 73904,6917.877,95.437,540.727,538.758,0.0
53285.0,STARLINK-4173,PAYLOAD,2023-11-18 09:59:46,15.08841945,0.0001438,53.2176,5.234,94.8552,265.2604,-7.7491e-06,-4.11e-06,0.0,0 STARLINK-4173,1 53285U 22086AV  23322.41651580 -.00000411  00000-0 -77491-5 0  9994,2 53285  53.2176   5.2340 0001438  94.8552 265.2604 15.08841945 74036,6917.874,95.437,540.734,538.745,0.0
53285.0,STARLINK-4173,PAYLOAD,2023-11-18 19:32:05,15.08837156,0.0001472,53.2186,3.4523,98.3635,261.7524,3.4207e-05,2.56e-06,0.0,0 STARLINK-4173,1 53285U 22086AV  23322.81395794  .00000256  00000-0  34207-4 0  9992,2 53285  53.2186   3.4523 0001472  98.3635 261.7524 15.08837156 73938,6917.889,95.438,540.772,538.736,0.0
53285.0,STARLINK-4173,PAYLOAD,2023-11-19 09:50:34,15.08841891,0.000148,53.2185,0.7765,102.7656,257.3502,2.9359e-05,1.79e-06,0.0,0 STARLINK-4173,1 53285U 22086AV  23323.41011605  .00000179  00000-0  29359-4 0  9991,2 53285  53.2185   0.7765 0001480 102.7656 257.3502 15.08841891 74183,6917.875,95.437,540.763,538.716,0.0
53285.0,STARLINK-4173,PAYLOAD,2023-11-19 19:22:53,15.08837513,0.0001493,53.2183,358.9925,108.3831,251.7324,2.8085e-05,1.59e-06,0.0,0 STARLINK-4173,1 53285U 22086AV  23323.80755881  .00000159  00000-0  28085-4 0  9998,2 53285  53.2183 358.9925 0001493 108.3831 251.7324 15.08837513 74241,6917.888,95.438,540.786,538.72,0.0
53285.0,STARLINK-4173,PAYLOAD,2023-11-20 01:44:25,15.0883628,0.0001432,53.218,357.8025,97.7622,262.3533,8.5556e-05,1.074e-05,0.0,0 STARLINK-4173,1 53285U 22086AV  23324.07251833  .00001074  00000-0  85556-4 0  9999,2 53285  53.2180 357.8025 0001432  97.7622 262.3533 15.08836280 74126,6917.892,95.438,540.747,538.766,0.0
53285.0,STARLINK-4173,PAYLOAD,2023-11-20 11:16:44,15.08842834,0.0001395,53.2172,356.0172,94.0892,266.026,7.244e-05,8.65e-06,0.0,0 STARLINK-4173,1 53285U 22086AV  23324.46995559  .00000865  00000-0  72440-4 0  9997,2 53285  53.2172 356.0172 0001395  94.0892 266.0260 15.08842834 74342,6917.872,95.437,540.702,538.772,0.0
53285.0,STARLINK-4173,PAYLOAD,2023-11-20 19:13:39,15.08841989,0.0001555,53.2184,354.5295,85.8841,274.2328,5.3623e-05,5.66e-06,0.0,0 STARLINK-4173,1 53285U 22086AV  23324.80115702  .00000566  00000-0  53623-4 0  9999,2 53285  53.2184 354.5295 0001555  85.8841 274.2328 15.08841989 74395,6917.874,95.437,540.815,538.664,0.0
53285.0,STARLINK-4173,PAYLOAD,2023-11-21 11:07:31,15.08841254,0.0001626,53.2181,351.555,88.476,271.6418,3.8935e-05,3.32e-06,0.0,0 STARLINK-4173,1 53285U 22086AV  23325.46355854  .00000332  00000-0  38935-4 0  9996,2 53285  53.2181 351.5550 0001626  88.4760 271.6418 15.08841254 74331,6917.877,95.437,540.866,538.617,0.0
53285.0,STARLINK-4173,PAYLOAD,2023-11-22 09:22:54,15.08847372,0.0001674,53.2176,347.3947,72.4126,287.7049,0.00011995,1.622e-05,0.0,0 STARLINK-4173,1 53285U 22086AV  23326.39091272  .00001622  00000-0  11995-3 0  9999,2 53285  53.2176 347.3947 0001674  72.4126 287.7049 15.08847372 74638,6917.858,95.437,540.881,538.565,0.0
53285.0,STARLINK-4173,PAYLOAD,2023-11-23 07:38:19,15.08840296,0.000176,53.2176,343.232,74.5507,285.5679,9.0854e-06,-1.44e-06,0.0,0 STARLINK-4173,1 53285U 22086AV  23327.31828170 -.00000144  00000-0  90854-5 0  9999,2 53285  53.2176 343.2320 0001760  74.5507 285.5679 15.08840296 74611,6917.879,95.438,540.962,538.527,0.0
53285.0,STARLINK-4173,PAYLOAD,2023-11-24 10:39:52,15.0884317,0.0001761,53.2184,338.1708,112.694,247.4239,-3.3568e-05,-8.22e-06,0.0,0 STARLINK-4173,1 53285U 22086AV  23328.44436298 -.00000822  00000-0 -33568-4 0  9992,2 53285  53.2184 338.1708 0001761 112.6940 247.4239 15.08843170 74780,6917.871,95.437,540.954,538.517,0.0
53285.0,STARLINK-4173,PAYLOAD,2023-11-25 05:44:30,15.08846931,0.0001687,53.2181,334.6094,78.3749,281.7432,7.4279e-05,8.94e-06,0.0,0 STARLINK-4173,1 53285U 22086AV  23329.23924074  .00000894  00000-0  74279-4 0  9995,2 53285  53.2181 334.6094 0001687  78.3749 281.7432 15.08846931 75064,6917.859,95.437,540.891,538.557,0.0
53285.0,STARLINK-4173,PAYLOAD,2023-11-25 23:13:44,15.08847505,0.0001627,53.2171,331.3379,83.1172,277.0005,0.00014521,2.024e-05,0.0,0 STARLINK-4173,1 53285U 22086AV  23329.96788002  .00002024  00000-0  14521-3 0  9994,2 53285  53.2171 331.3379 0001627  83.1172 277.0005 15.08847505 75018,6917.857,95.437,540.848,538.597,0.0
53285.0,STARLINK-4173,PAYLOAD,2023-11-26 10:21:25,15.08864334,0.0001681,53.2169,329.2506,103.0841,257.0339,0.00033285,5.017e-05,0.0,0 STARLINK-4173,1 53285U 22086AV  23330.43154590  .00005017  00000-0  33285-3 0  9990,2 53285  53.2169 329.2506 0001681 103.0841 257.0339 15.08864334 75082,6917.806,95.436,540.834,538.508,0.0
53285.0,STARLINK-4173,PAYLOAD,2023-11-27 03:50:43,15.08806133,0.0001641,53.2177,325.9847,80.4823,279.6354,-0.00051971,-8.542e-05,0.0,0 STARLINK-4173,1 53285U 22086AV  23331.16022267 -.00008542  00000-0 -51971-3 0  9996,2 53285  53.2177 325.9847 0001641  80.4823 279.6354 15.08806133 75198,6917.984,95.44,540.984,538.714,0.0
53285.0,STARLINK-4173,PAYLOAD,2023-11-27 08:36:52,15.08807216,0.0001679,53.218,325.0948,73.8141,286.3036,-0.00045359,-7.493e-05,0.0,0 STARLINK-4173,1 53285U 22086AV  23331.35894609 -.00007493  00000-0 -45359-3 0  9991,2 53285  53.2180 325.0948 0001679  73.8141 286.3036 15.08807216 75381,6917.981,95.44,541.007,538.684,0.0
53285.0,STARLINK-4173,PAYLOAD,2023-11-28 08:27:38,15.08860484,0.0001931,53.218,320.6282,68.4515,291.6682,0.00012474,1.699e-05,0.0,0 STARLINK-4173,1 53285U 22086AV  23332.35252337  .00001699  00000-0  12474-3 0  9990,2 53285  53.2180 320.6282 0001931  68.4515 291.6682 15.08860484 75370,6917.818,95.436,541.019,538.347,0.0
53285.0,STARLINK-4173,PAYLOAD,2023-11-28 22:46:07,15.08833995,0.0001988,53.2189,317.9582,74.0777,286.0434,0.00039824,6.055e-05,0.0,0 STARLINK-4173,1 53285U 22086AV  23332.94869685  .00006055  00000-0  39824-3 0  9994,2 53285  53.2189 317.9582 0001988  74.0777 286.0434 15.08833995 75624,6917.899,95.438,541.139,538.388,0.0
53285.0,STARLINK-4173,PAYLOAD,2023-11-29 03:32:16,15.08840275,0.0001789,53.2188,317.0611,98.8886,261.2308,0.00041872,6.382e-05,0.0,0 STARLINK-4173,1 53285U 22086AV  23333.14741259  .00006382  00000-0  41872-3 0  9992,2 53285  53.2188 317.0611 0001789  98.8886 261.2308 15.08840275 75490,6917.88,95.438,540.982,538.507,0.0
53285.0,STARLINK-4173,PAYLOAD,2023-11-29 06:43:02,15.08854029,0.0001843,53.2171,316.4661,86.2121,273.9082,0.00058453,9.031e-05,0.0,0 STARLINK-4173,1 53285U 22086AV  23333.27989479  .00009031  00000-0  58453-3 0  9991,2 53285  53.2171 316.4661 0001843  86.2121 273.9082 15.08854029 75675,6917.838,95.437,540.977,538.428,0.0
53285.0,STARLINK-4173,PAYLOAD,2023-11-30 03:23:03,15.08848341,0.0002127,53.2186,312.5993,89.9527,270.1708,-9.3805e-05,-1.781e-05,0.0,0 STARLINK-4173,1 53285U 22086AV  23334.14101469 -.00001781  00000-0 -93805-4 0  9990,2 53285  53.2186 312.5993 0002127  89.9527 270.1708 15.08848341 75643,6917.855,95.437,541.191,538.248,0.0
53285.0,STARLINK-4173,PAYLOAD,2023-12-01 04:49:15,15.08812212,0.0002369,53.2182,307.8391,95.6064,264.5198,0.0011481,0.00018018,0.0,0 STARLINK-4173,1 53285U 22086AV  23335.20087616  .00018018  00000-0  11481-2 0  9992,2 53285  53.2182 307.8391 0002369  95.6064 264.5198 15.08812212 75802,6917.965,95.439,541.469,538.191,0.0
53285.0,STARLINK-4173,PAYLOAD,2023-12-02 01:29:13,15.08855741,0.0002079,53.2176,303.9673,109.1556,250.9661,0.00030077,4.504e-05,0.0,0 STARLINK-4173,1 53285U 22086AV  23336.06196426  .00004504  00000-0  30077-3 0  9995,2 53285  53.2176 303.9673 0002079 109.1556 250.9661 15.08855741 75932,6917.832,95.437,541.135,538.259,0.0
